[{"OBJECT_NAME":"SHIJIAN-6 02A (SJ-6 02A)","OBJECT_ID":"2006-046A","EPOCH":"2026-03-09T21:49:37.521984","MEAN_MOTION":15.15703349,"ECCENTRICITY":0.00046258,"INCLINATION":97.65,"RA_OF_ASC_NODE":109.2528,"ARG_OF_PERICENTER":113.0609,"MEAN_ANOMALY":247.1111,"EPHEMERIS_TYPE":0,"CLASSIFICATION_TYPE":"U","NORAD_CAT_ID":29505,"ELEMENT_SET_NO":999,"REV_AT_EPOCH":5722,"BSTAR":0.00028731371,"MEAN_MOTION_DOT":5.405e-5,"MEAN_MOTION_DDOT":0},{"OBJECT_NAME":"TIROS 8 DEB","OBJECT_ID":"1963-054E","EPOCH":"2026-03-09T05:22:09.369120","MEAN_MOTION":15.13815533,"ECCENTRICITY":0.00070645,"INCLINATION":58.4668,"RA_OF_ASC_NODE":307.6042,"ARG_OF_PERICENTER":279.6735,"MEAN_ANOMALY":80.3526,"EPHEMERIS_TYPE":0,"CLASSIFICATION_TYPE":"U","NORAD_CAT_ID":19396,"ELEMENT_SET_NO":999,"REV_AT_EPOCH":1931,"BSTAR":0.00045651397,"MEAN_MOTION_DOT":8.056e-5,"MEAN_MOTION_DDOT":0}]
